NOAA 2 (ITOS-D)
1 06235U 72082A   26202.55248152 -.00000032  00000-0  93362-4 0  9992
2 06235 102.0077 221.5002 0004588 104.5279  62.8769 12.53216134459251
SOLRAD-7B
1 01291U 65016D   26203.17492274  .00000025  00000-0  56930-4 0  9994
2 01291  70.0786 161.8795 0018511  72.8950 287.4181 13.94979213121583
OSCAR-7 (AO-7)
1 07530U 74089B   26203.01389822 -.00000046  00000-0  31002-5 0  9991
2 07530 101.9908 216.6236 0012617  65.7709 352.5322 12.53698634364880
UOSAT-2 (UO-11)
1 14781U 84021B   26203.25715222  .00001166  00000-0  12393-3 0  9990
2 14781  97.8082 168.4468 0009119  71.8134 288.4076 14.90861576262358
FLTSATCOM-7 (USA-20)
1 17181U 86096A   26202.85045103 -.00000106  00000-0  00000-0 0  9993
2 17181  12.6734 339.8666 0040345 330.8148  37.5318  0.98926940152313
FLTSATCOM-8 (USA-46)
1 20253U 89077A   26203.28281346 -.00000369  00000-0  00000-0 0  9999
2 20253  12.4115 350.9469 0002210 102.7387  73.8086  1.00279825260911
OSCAR 16 (PACSAT)
1 20439U 90005D   26203.06104899  .00000091  00000-0  49207-4 0  9998
2 20439  98.8509 239.5558 0011521 126.1697 288.2996 14.33946403906936
LUSAT (LO-19)
1 20442U 90005G   26202.99643578  .00000080  00000-0  45129-4 0  9992
2 20442  98.8846 225.7599 0012669 103.1689 257.0909 14.34132161907383
UFO 2 (USA 95)
1 22787U 93056A   26203.12090872  .00000121  00000-0  00000-0 0  9995
2 22787  11.9071   3.3556 0001970   0.4517   8.2017  1.00273738118901
EYESAT-1 (AO-27)
1 22825U 93061C   26203.17144757  .00000055  00000-0  37818-4 0  9998
2 22825  98.6862 270.5690 0008357   5.9572 354.1708 14.30950387712008
ITAMSAT (IO-26)
1 22826U 93061D   26203.14041631  .00000045  00000-0  33907-4 0  9997
2 22826  98.6809 270.4591 0008533 348.6901  11.4089 14.31378090712313
UFO 3 (USA 104)
1 23132U 94035A   26202.81503301 -.00000108  00000-0  00000-0 0  9995
2 23132  12.3827   5.4932 0001821 241.0578 336.3367  1.00270358132045
RADIO ROSTO (RS-15)
1 23439U 94085A   26203.23685821 -.00000038  00000-0  12289-3 0  9992
2 23439  64.8140 246.5321 0157186 357.4121   2.5975 11.27583643299851
UFO 4 (USA 108)
1 23467U 95003A   26203.22076519 -.00000025  00000-0  00000-0 0  9992
2 23467   9.6816  12.9835 0002935  99.3243  79.4754  1.00269600115301
UFO 7 (USA 127)
1 23967U 96042A   26202.89100425 -.00000305  00000-0  00000-0 0  9998
2 23967  11.1496  16.8849 0006517 119.1103  71.5959  1.00200828109830
JAS-2 (FO-29)
1 24278U 96046B   26203.13337786 -.00000047  00000-0 -11017-4 0  9996
2 24278  98.5216  47.2150 0350025   5.9531 354.5608 13.53275838477894
UFO 8 (USA 138)
1 25258U 98016A   26202.78910773 -.00000198  00000-0  00000-0 0  9999
2 25258  11.1729  22.5431 0003745 238.8554 114.9706  1.00265115104202
TECHSAT-1B (GO-32)
1 25397U 98043D   26202.41314108  .00000032  00000-0  34135-4 0  9999
2 25397  99.0091 196.0385 0002316 105.0328 255.1107 14.24434140456204
ISS (ZARYA)
1 25544U 98067A   26203.15321183  .00008859  00000-0  16818-3 0  9994
2 25544  51.6313 127.0562 0006883 324.3803  35.6725 15.49090344577176
UFO 10 (USA 146)
1 25967U 99063A   26202.83586611 -.00000192  00000-0  00000-0 0  9999
2 25967   9.8519  27.0234 0001892 134.7754  55.7596  1.00271626 97695
PCSAT (NO-44)
1 26931U 01043C   26203.29140487  .00000112  00000-0  72622-4 0  9994
2 26931  67.0503 153.4757 0005853 267.2123  92.8309 14.31967057295471
PROBA-1
1 26958U 01049B   26203.31442272  .00001982  00000-0  13036-3 0  9998
2 26958  97.9606 213.0770 0054941   5.7285 354.4558 15.07632660348914
SAUDISAT-1C (SO-50)
1 27607U 02058C   26203.15188800  .00000775  00000-0  10888-3 0  9998
2 27607  64.5522  20.7986 0074308 256.0137 103.2699 14.83108446269642
CUTE-1 (CO-55)
1 27844U 03031E   26203.02043421  .00000248  00000-0  12599-3 0  9994
2 27844  98.6746 211.1424 0010865  85.1990 275.0430 14.24354732196635
CUBESAT XI-IV (CO-57)
1 27848U 03031J   26202.46414799  .00000171  00000-0  94004-4 0  9992
2 27848  98.6777 210.2780 0010700 103.0346 257.2027 14.23636890196250
MOZHAYETS-4 (RS-22)
1 27939U 03042A   26203.32729936  .00000530  00000-0  89811-4 0  9992
2 27939  98.3487  28.6814 0011767 151.1120 310.3090 14.73521633220727
UFO 11 (USA 174)
1 28117U 03057A   26203.03184699 -.00000107  00000-0  00000-0 0  9996
2 28117   8.9587  33.6327 0002798 106.2489 246.9067  1.00270705 82790
CUBESAT XI-V (CO-58)
1 28895U 05043F   26202.37477685  .00000932  00000-0  15414-3 0  9995
2 28895  98.3024 358.7230 0015344  97.2573 263.0378 14.72712744106788
CAPE-1
1 31130U 07012P   26203.00467347  .00001133  00000-0  21140-3 0  9991
2 31130  98.4486 178.4383 0082540 323.3874  36.1704 14.64966980 23450
CUTE-1.7+APD II (CO-65)
1 32785U 08021C   26203.24657463  .00004754  00000-0  29868-3 0  9992
2 32785  97.8297 185.4067 0006927 269.3303  90.7131 15.09741550990488
SEEDS-II (CO-66)
1 32791U 08021J   26202.46224214  .00017397  00000-0  53391-3 0  9991
2 32791  97.7536 202.0274 0003743 143.8472 216.3023 15.33809298992548
YUBILEINY (RS-30)
1 32953U 08025A   26203.26738631  .00000093  00000-0  60139-3 0  9990
2 32953  82.5070 333.6185 0018798 232.7664 127.1702 12.43181276824052
KKS-1 (KISEKI)
1 33499U 09002H   26203.20312546  .00000955  00000-0  12371-3 0  9991
2 33499  98.1169 126.1998 0007996 166.1155 194.0280 14.83201050941389
SWISSCUBE
1 35932U 09051B   26202.23982576  .00000659  00000-0  13969-3 0  9992
2 35932  98.4000 110.7173 0008064 103.0186 257.1915 14.62538248894130
BEESAT
1 35933U 09051C   26203.22540006  .00000617  00000-0  13357-3 0  9996
2 35933  98.3928 111.2816 0006444 111.6520 248.5367 14.61769634894304
ITUPSAT-1
1 35935U 09051E   26202.97297986  .00000620  00000-0  13787-3 0  9996
2 35935  98.4011 110.1798 0008455 124.3905 235.8095 14.60485984893813
PROBA-2
1 36037U 09059B   26203.10955420  .00000144  00000-0  44145-4 0  9992
2 36037  98.2464  25.9806 0013502 167.4432 192.7104 14.54875678886609
XIWANG-1 (HOPE-1)
1 36122U 09072B   26203.27947068 -.00000032  00000-0  32014-4 0  9998
2 36122 100.4043 156.5539 0007756 148.9914 211.1659 13.16440822797620
EWS-G2 (GOES-15)
1 36411U 10008A   26203.12784208  .00000025  00000-0  00000-0 0  9996
2 36411   1.3715  82.3854 0005490  53.4557 273.2990  1.00269824 59986
TISAT-1
1 36799U 10035E   26202.59601294  .00020197  00000-0  63722-3 0  9993
2 36799  98.0708 152.2342 0004824 107.8741 252.3026 15.32897907872977
HORYU-2
1 38340U 12025D   26202.79701343  .00002679  00000-0  27525-3 0  9992
2 38340  98.2216 337.1610 0009147  73.4639 286.7582 14.91253953753883
AAUSAT-3
1 39087U 13009B   26203.27143982  .00000483  00000-0  16682-3 0  9990
2 39087  98.3714  26.2693 0012655 105.3513 254.9075 14.39977863702228
STRAND-1
1 39090U 13009E   26203.00591478  .00000243  00000-0  95889-4 0  9993
2 39090  98.3941  22.3864 0009701 122.8343 237.3779 14.37181893702060
CUBEBUG-1 (CAPITAN BETO)
1 39153U 13018D   26202.91638098  .00002516  00000-0  22124-3 0  9998
2 39153  98.1694   4.4145 0011791  38.9358 321.2709 14.97481957716264
PROBA-V
1 39159U 13021A   26202.90999959  .00000055  00000-0  42036-4 0  9994
2 39159  98.3611 179.8069 0004985  44.0739 316.0837 14.23604343686053
ZACUBE-1 (TSHEPISOSAT)
1 39417U 13066B   26201.86646474  .00001847  00000-0  14537-3 0  9999
2 39417  97.7999 164.3670 0044079 137.0238 223.4444 15.01347026685787
TRITON-1
1 39427U 13066M   26203.27570057  .00001239  00000-0  15261-3 0  9990
2 39427  97.8211 112.2796 0091108 119.2947 241.7409 14.81812136679289
DELFI-N3XT
1 39428U 13066N   26202.77570488  .00006414  00000-0  55326-3 0  9999
2 39428  97.8307 123.0584 0075709  91.5448 269.4447 14.95408774679797
GOMX-1
1 39430U 13066Q   26203.25243366  .00000536  00000-0  87729-4 0  9990
2 39430  97.6470  41.5023 0127659 325.4770  33.8194 14.69551236675061
VELOX-PII
1 39438U 13066Y   26203.28285033  .00002103  00000-0  20168-3 0  9993
2 39438  97.8760 154.6959 0051344 225.3616 134.3411 14.93275956683079
CUBEBUG-2 (LO-74)
1 39440U 13066AA  26203.29468735  .00002604  00000-0  24278-3 0  9991
2 39440  97.8917 152.4311 0055448 271.2491  88.2376 14.94001241682233
FUNCUBE-1 (AO-73)
1 39444U 13066AE  26202.85372639  .00007711  00000-0  47205-3 0  9992
2 39444  97.8301 175.0373 0038113  86.0733 274.4851 15.09885034684892
UWE-3
1 39446U 13066AG  26202.83639828  .00003114  00000-0  26825-3 0  9996
2 39446  97.8727 159.1532 0047766 201.8178 158.1010 14.97233886682767
UNISAT-6
1 40012U 14033C   26203.22773730  .00001765  00000-0  19329-3 0  9998
2 40012  97.7918 355.3341 0043707 314.1378  45.6247 14.88387173651372
DUCHIFAT-1
1 40021U 14033M   26202.72807689  .00164629  00000-0  12190-2 0  9990
2 40021  98.0415 266.9561 0003626 228.7731 131.3218 15.72417512661162
SMAP
1 40376U 15003A   26203.22498890  .00000314  00000-0  69905-4 0  9995
2 40376  98.1287 209.8250 0001633  92.9290 267.2099 14.63393289612740
LILACSAT-2
1 40908U 15049K   26203.28191830  .00020795  00000-0  33976-3 0  9999
2 40908  97.4630 241.4779 0008629 120.8511 239.3591 15.52543144601192
LAPAN-A2 (IO-86)
1 40931U 15052B   25151.18580782  .00001310  00000-0  87238-4 0  9990
2 40931   6.0001  24.1284 0012872 339.0660  20.8941 14.78806187523042
LQSAT
1 40958U 15057A   26203.23482831  .00000433  00000-0  68360-4 0  9995
2 40958  97.6706 194.8786 0017589 153.5764 206.6348 14.76819012580480
PRATHAM
1 41783U 16059A   26202.95628450  .00000617  00000-0  11693-3 0  9992
2 41783  97.8342 198.2896 0032672 107.1070 253.3718 14.67232930524611
ALSAT-1N
1 41789U 16059G   26203.25486005  .00000493  00000-0  90839-4 0  9992
2 41789  97.8023 205.0466 0027488  76.4044 284.0221 14.69355923525151
CAS-2T & KS-1Q
1 41847U 16066G   26203.14574582  .00000594  00000-0  91966-4 0  9995
2 41847  98.3808 278.4820 0341866  23.6956 337.9565 14.44778706509844
GOES-16
1 41866U 16071A   26203.24627885 -.00000088  00000-0  00000-0 0  9992
2 41866   0.4214  85.4334 0000706  71.6439 126.8756  1.00271829 35450
FENGYUN-4A
1 41882U 16077A   26203.28238013 -.00000356  00000-0  00000-0 0  9999
2 41882   2.4095  79.8837 0008068 159.1488 286.2764  1.00265162 35281
